{"version":0.6,"generator":"Overpass API 0.7.62.7 375dc00a","osm3s":{"timestamp_osm_base":"2025-06-11T07:08:30Z","copyright":"The data included in this document is from www.openstreetmap.org. The data is made available under ODbL."},"elements":[{"type":"way","id":40036584,"bounds":{"minlat":31.2280698,"minlon":121.4870105,"maxlat":31.2297789,"maxlon":121.488498},"nodes":[967330036,4273347059,4273347075,967330037,2366825233,5346183054,4273147336,5346183046,4273412883,4324718123,4324718124,5346182688,5346182665,5346182664,5346182659,5346182706,773662880,5346182715,5346182716,1316623504,5346182717,2366826127,5346182718,5346182719,2366826128,2366834574,2366802648,773662881,4273147780,2366841374,967330036],"geometry":[{"lat":31.2297789,"lon":121.4881234},{"lat":31.2297743,"lon":121.4878704},{"lat":31.2297618,"lon":121.487187},{"lat":31.2297587,"lon":121.4870105},{"lat":31.2295176,"lon":121.4870235},{"lat":31.2293977,"lon":121.4870582},{"lat":31.2292681,"lon":121.4871009},{"lat":31.2290022,"lon":121.487199},{"lat":31.2288981,"lon":121.487247},{"lat":31.2289393,"lon":121.4873702},{"lat":31.2290047,"lon":121.4876025},{"lat":31.228965,"lon":121.487617},{"lat":31.2287312,"lon":121.4876687},{"lat":31.2286967,"lon":121.4876752},{"lat":31.2285344,"lon":121.4877108},{"lat":31.2284468,"lon":121.4877305},{"lat":31.2284028,"lon":121.4877405},{"lat":31.2284477,"lon":121.4879931},{"lat":31.2284371,"lon":121.4880162},{"lat":31.2284243,"lon":121.48802},{"lat":31.2282464,"lon":121.4880719},{"lat":31.2280698,"lon":121.4881205},{"lat":31.2280727,"lon":121.4881488},{"lat":31.2280924,"lon":121.4882659},{"lat":31.2281296,"lon":121.488498},{"lat":31.2281368,"lon":121.4884964},{"lat":31.228498,"lon":121.4884154},{"lat":31.2289155,"lon":121.4883276},{"lat":31.2292257,"lon":121.488262},{"lat":31.2293205,"lon":121.4882419},{"lat":31.2297789,"lon":121.4881234}],"tags":{"addr:city":"上海市","addr:country":"CN","addr:district":"黄浦区","alt_name":"Yu Garden","fee":"yes","heritage":"2","heritage:operator":"全国重点文物保护单位","heritage:ref":"2-39","leisure":"garden","name":"豫园","name:en":"Yu Yuan Garden","name:es":"Jardín Yuyuan","name:fr":"Jardin Yuyuan","name:ja":"豫園","name:ja_kana":"よえん","name:ja_rm":"Yoen","name:ko":"예원","name:ru":"Сад Юй Юань","name:vi":"Dự Viên","name:zh":"豫园","name:zh-Hant":"豫園","name:zh-Latn-pinyin":"Yù Yuán","opening_hours":"08:00-17:15","phone":"+86 21 6326 0830","start_date":"1577","tourism":"attraction","tourism:level:CN":"AAAA","website":"https://www.yugarden.com.cn/","wikidata":"Q1328025","wikimedia_commons":"Category:Yu Garden","wikipedia":"zh:豫园"}},{"type":"way","id":40036584,"center":{"lat":31.2289243,"lon":121.4877542},"nodes":[967330036,4273347059,4273347075,967330037,2366825233,5346183054,4273147336,5346183046,4273412883,4324718123,4324718124,5346182688,5346182665,5346182664,5346182659,5346182706,773662880,5346182715,5346182716,1316623504,5346182717,2366826127,5346182718,5346182719,2366826128,2366834574,2366802648,773662881,4273147780,2366841374,967330036],"tags":{"addr:city":"上海市","addr:country":"CN","addr:district":"黄浦区","alt_name":"Yu Garden","fee":"yes","heritage":"2","heritage:operator":"全国重点文物保护单位","heritage:ref":"2-39","leisure":"garden","name":"豫园","name:en":"Yu Yuan Garden","name:es":"Jardín Yuyuan","name:fr":"Jardin Yuyuan","name:ja":"豫園","name:ja_kana":"よえん","name:ja_rm":"Yoen","name:ko":"예원","name:ru":"Сад Юй Юань","name:vi":"Dự Viên","name:zh":"豫园","name:zh-Hant":"豫園","name:zh-Latn-pinyin":"Yù Yuán","opening_hours":"08:00-17:15","phone":"+86 21 6326 0830","start_date":"1577","tourism":"attraction","tourism:level:CN":"AAAA","website":"https://www.yugarden.com.cn/","wikidata":"Q1328025","wikimedia_commons":"Category:Yu Garden","wikipedia":"zh:豫园"}}]}